ONEWEB-0607             
1 54671U 22166AF  25258.65050081 -.00000048  00000+0 -14856-3 0  9997
2 54671  87.9201 298.7550 0001977  89.9504 270.1857 13.21823255135277
ONEWEB-0608             
1 54672U 22166AG  25258.65679971 -.00000008  00000+0 -51898-4 0  9997
2 54672  87.9197 298.7376 0002337  84.6866 275.4535 13.21824709135289
ONEWEB-0610             
1 54673U 22166AH  25258.63788439  .00000009  00000+0 -93603-5 0  9997
2 54673  87.9203 298.7785 0002407  83.2535 276.8873 13.21825165135184
ONEWEB-0611             
1 54674U 22166AJ  25258.63154295  .00000002  00000+0 -27542-4 0  9996
2 54674  87.9203 298.7758 0001761  98.7944 261.3390 13.21823452135171
ONEWEB-0612             
1 54675U 22166AK  25258.64418991  .00000014  00000+0  30220-5 0  9994
2 54675  87.9203 298.7511 0002043  90.3203 269.8165 13.21823998135166
ONEWEB-0615             
1 54676U 22166AL  25258.62524605 -.00000010  00000+0 -55306-4 0  9992
2 54676  87.9204 298.7815 0001925  94.1850 265.9504 13.21824236135174
ONEWEB-0655             
1 54677U 22166AM  25258.67415857  .00000040  00000+0  66099-4 0  9998
2 54677  87.9202 298.7768 0001817  85.0780 275.0562 13.21826917135175
ONEWEB-0659             
1 54678U 22166AN  25258.61579209  .00000096  00000+0  20164-3 0  9998
2 54678  87.9204 298.7889 0002012  98.8306 261.3055 13.21823683135257
